#dP2021  1  4 18  0  0.00000000      96 __u+U ITR00 EXT  IAC
## 2139 151200.00000000   900.00000000 59218 0.7500000000000
+  115   C06C07C08C09C10C11C12C13C14C16C19C20C21C22C23C24C25
+        C26C27C28C29C30C32C33C34C35C36C37C38C39C40C43C44C45
+        C46E01E02E03E04E05E07E08E09E11E12E13E14E15E18E19E21
+        E24E25E26E27E30E31E33E36G01G02G03G04G05G06G07G08G09
+        G10G11G12G13G14G15G16G17G18G19G20G21G22G23G24G25G26
+        G27G28G29G30G31G32J01J02J03R01R02R03R04R05R07R08R09
+        R11R12R13R14R15R16R17R18R19R20R21R22R24  0  0  0  0
++        11  8  9 11  9  9 10  9  9 11  8  8  9  8  9  9  8
++         8  9  8  9  8  9  9  9  9  8  8 12 15 13 12  9 13
++        10  7  9  8  9  8  9  9  9  8  8  8  9  8  8  9  9
++         6  8  8  8 10  8  8  7  8  7  8  7  8  7  7  7  6
++         7  8  7  8  7  8  8  8  9  8  8  8  7  8  7  7  7
++         7  7  8  8  6  7 10 11  8  9  8  9  8  9  8  7  7
++         8  8  8 10  8  8  8  9  8  9  8  7  8  0  0  0  0
%c M  cc GPS ccc cccc cccc cccc cccc ccccc ccccc ccccc ccccc
%c cc cc ccc ccc cccc cccc cccc cccc ccccc ccccc ccccc ccccc
%f  0.0000000  0.000000000  0.00000000000  0.000000000000000
%f  0.0000000  0.000000000  0.00000000000  0.000000000000000
%i    0    0    0    0      0      0      0      0         0
%i    0    0    0    0      0      0      0      0         0
/* IAC                                ULTRA-RAPID PREDICTION
/* S/V CLOCKS ARE ALIGNED TO GNSS TIME                      
/* G:C1WC2W R:C1PC2P E:C1XC5X C:C2IC6I J:C1CC2S             
/* PCV:IGS14_2134 OL/AL:FES2004  NONE     YN ORB:CoN CLK:CoN
*  2021 01 04 23 15  0.00000000
PC06 -11030.743494  37256.965959  17358.728636    108.246866
PC07 -12415.980554  23304.574005 -32659.217082   -196.185624
PC08 -24051.801130  29149.186122  18374.801371   -862.342320
PC09  -1188.539559  42356.463396   1599.164843    825.491427
PC10   2143.534985  27894.614057 -31228.156671   -109.902592
PC11  10459.002358  17309.760919  19277.159020   -864.246285
PC12   -371.325251  27536.338595   4478.128611    709.188127
PC13 -10788.273300  29540.391212  28048.901011     83.775521
PC14  21328.155918  17765.506427   2609.531974   -167.859198
PC16  -9263.968369  38001.442187  16089.289016   -650.003519
PC19 -24340.969427 -11881.058216   6761.118946    679.189471
PC20 -16035.121609 -20422.127312 -10247.269138   -909.378571
PC21  -2321.731910  17121.120807  21922.143917   -779.978446
PC22 -18776.875586   3735.720366  20308.969397   -834.745045
PC23  25438.744143 -11465.907577    704.546810   -884.800837
PC24   6695.125649  14777.246437 -22715.082114   -737.232053
PC25  23294.593809   1306.363640 -15334.478387   -885.979542
PC26 -11879.590696  18722.634821 -16927.896449    967.257976
PC27   6809.645213 -26599.888448   4918.565237    461.034007
PC28  15173.818309 -13152.843069  19388.453109   -125.613151
PC29 -14913.810077  -7389.117566 -22400.075861    334.192269
PC30  -6141.230716 -24440.226374 -11962.781949    426.874751
PC32   2199.642944 -17141.026501 -21902.377890   -881.866467
PC33  24383.264736  11817.140055  -6649.620551   -899.947867
PC34   6486.196907  24116.777580  12474.182119   -770.510757
PC35 -14829.336184  13411.505721 -19479.272816   -480.844582
PC36 -23064.169171  -2114.238545  15582.706070   -785.181980
PC37  13138.061212 -18397.787699  16391.602244   -860.941310
PC38 -22184.535813  30657.097954  18479.076045    121.993287
PC39  -5227.938032  39392.051376  14280.080982     27.096488
PC40  -3926.370253  22773.529024 -35231.448979    117.991430
PC43  14868.971254   7992.933178  22224.489219   -537.489155
PC44  -6088.427723  26769.320295  -5107.939311    -29.968148
PC45 -25376.761829  11547.467741   -753.364322    326.733323
PC46  -7461.736697 -14295.716116  22777.510183    467.164663
PE01 -29370.054380    843.751444  -3529.559374  -1017.982139
PE02  29374.248807   -917.204795   3638.102947    188.692904
PE03  19077.379955   2179.558595 -22532.617173   -383.730048
PE04  -8618.255318  17605.474374  22178.098232   -682.199468
PE05  18497.653887  20994.489009  -9661.787019   -315.559793
PE07  -7125.683565 -27377.161380  -8727.507998   -483.502555
PE08   8185.810183 -17844.664989 -22161.403064   6066.836844
PE09   7425.938177  27314.356869   8631.607869   5809.797933
PE11  -3979.193660  25043.785733  15280.818057   6522.322519
PE12 -17583.283837  23568.747322  -3449.847298   5422.821072
PE13   4247.609285 -25155.668397 -14996.674329    409.670465
PE14  -3792.467220  25870.203277 -10569.665091  -1283.551414
PE15  17470.891358 -23649.219843   3429.737866    835.830742
PE18  -8900.836518 -27724.929622  -4719.835333  -1402.750602
PE19 -19535.479843  -4720.560439  21727.468131    170.343599
PE21 -23607.807438 -10740.096051  14256.243502   -641.072033
PE24   3200.739420  16589.983117 -24316.509498   -672.398745
PE25  23503.864829  10818.572999 -14381.063298   -523.656129
PE26 -11990.413764 -11382.798506 -24540.874271   2302.576191
PE27  -3924.027087 -16498.271385  24263.418133     57.872162
PE30  18675.015722 -12150.224532  19492.371274   3288.925247
PE31 -17920.008456  12521.998096 -19943.018769   -477.071374
PE33 -20394.571633   8254.542079 -19789.732295   -464.604648
PE36  11459.162417  11872.050703  24586.895423    458.580416
PG01  12329.676162 -21206.543607  -9981.383055    785.478171
PG02 -20654.880762  12435.591654 -10485.962866   -562.370529
PG03   3964.522292 -14561.796237 -21936.727123    -47.910945
PG04   2623.668681 -23924.471109 -11174.520427   -170.143707
PG05 -22341.613643   4571.346312  13617.919228    -30.144089
PG06 -17387.186899  -1581.548637 -19965.988295     -4.636503
PG07  -2241.057023 -17598.278999  19946.356812      9.250476
PG08   7457.624322 -18318.755705  17595.610999     -5.418850
PG09  -7063.884514 -25591.170130    -82.991839   -309.249501
PG10  22564.814655  11871.357469   8015.204120    -31.901238
PG11  11053.107537 -23934.090051   4109.156014    -62.021635
PG12  -8534.874298  12721.576153 -21921.945537     17.395358
PG13 -13454.839603   8808.983624  20979.302416     82.396807
PG14 -20658.318238 -13731.072098   9494.538894     79.740853
PG15  -5418.011178  19829.482092  16267.575428   -178.539585
PG16  23021.796172  -1036.751358  13374.330185   -260.379117
PG17 -13581.910034 -16721.483433 -15108.366845    376.093744
PG18   3735.989674  16151.555585  20734.338789    338.747131
PG19 -15028.741319  -9307.939208 -20130.988746    -56.168601
PG20  13623.602466  14714.586827  17482.745741    525.310181
PG21  17262.095372 -19867.359259   -228.309923     83.941050
PG22  12952.469798 -12303.167772 -19409.443828   -703.820651
PG23  14208.167673  15295.014533  16414.125118    114.545009
PG24 -14178.771431  21664.363853  -5122.228596      4.111161
PG25   6810.906884  16373.514910 -20105.472170     53.286658
PG26  26242.028128   4189.293484   2581.883495     25.062144
PG27  13808.324157  -5497.090599  21843.802091    -49.377045
PG28 -21928.928290 -13358.230667   6963.789853    634.071538
PG29   4227.101265  26183.315000   -941.189541   -269.559913
PG30 -12263.109654 -10035.856721  21372.997924   -363.726980
PG31  19424.473969   -413.382511 -18386.475849    -91.900211
PG32  15338.324331  15285.453616 -15398.852122     12.475642
PJ01 -26394.817954  21159.920961  30190.373967   -335.753411
PJ02 -34381.972063  16103.064236 -13828.574713      0.485213
PJ03 -19684.298731  32247.842026 -14253.628359     -5.322666
PR01   -289.374766 -14700.586892 -20851.468087     73.030227
PR02 -15564.921615 -19719.975818  -4193.435410    461.516533
PR03 -18916.675808 -11208.228617  12919.377910     28.562500
PR04 -11389.026279   3337.140001  22598.753983     68.620693
PR05   2426.031598  16123.328910  19630.894366     64.165481
PR07  18840.096745  10875.410931 -13329.646164    -42.052945
PR08  11472.835340  -3380.800855 -22484.799788    -56.672566
PR09  10433.482975   8415.357745 -21673.859953     16.828621
PR11  22812.746419  -9079.292593   6911.763332      4.887179
PR12   8876.925991 -12179.945244  20611.630483    194.002266
PR13 -10026.899348  -8279.321799  21925.751762    -48.875769
PR14 -23409.455592    544.690847  10136.521581     59.492072
PR15 -22796.383996   8870.919826  -7200.786806    106.049357
PR16  -7524.707934  12458.782382 -20935.566253     -9.857539
PR17 -10295.093807  -2435.210174 -23194.027138    388.434843
PR18 -12461.876734  14894.472181 -16546.351619     62.065805
PR19  -8931.481102  23823.504154  -1782.744420   -126.553294
PR20   1304.391917  19225.766394  16751.280990   -430.424266
PR21  10587.407496   1167.600446  23186.537678   -178.093538
PR22  12398.558554 -15699.020472  15760.943144    -90.741388
PR24  -2250.769436 -18820.405467 -17053.991172     26.588478
EOF
